[{"OBJECT_NAME":"ION SCV-004","OBJECT_ID":"2022-002K","EPOCH":"2026-03-09T16:32:03.244416","MEAN_MOTION":15.29369331,"ECCENTRICITY":0.00072157,"INCLINATION":97.2961,"RA_OF_ASC_NODE":128.2294,"ARG_OF_PERICENTER":1.6783,"MEAN_ANOMALY":358.448,"EPHEMERIS_TYPE":0,"CLASSIFICATION_TYPE":"U","NORAD_CAT_ID":50993,"ELEMENT_SET_NO":999,"REV_AT_EPOCH":23008,"BSTAR":0.00023198467,"MEAN_MOTION_DOT":6.538e-5,"MEAN_MOTION_DDOT":0},{"OBJECT_NAME":"STARLINK-34169","OBJECT_ID":"2025-101F","EPOCH":"2026-03-09T05:00:15.716736","MEAN_MOTION":15.27555344,"ECCENTRICITY":0.00019194,"INCLINATION":43.0053,"RA_OF_ASC_NODE":0.5107,"ARG_OF_PERICENTER":260.2441,"MEAN_ANOMALY":99.8194,"EPHEMERIS_TYPE":0,"CLASSIFICATION_TYPE":"U","NORAD_CAT_ID":63999,"ELEMENT_SET_NO":999,"REV_AT_EPOCH":4698,"BSTAR":0.0012345553,"MEAN_MOTION_DOT":0.00033841,"MEAN_MOTION_DDOT":0}]
